{
  "norad_id": 65563,
  "name": "YAOGAN-45",
  "history": [
    {
      "epoch": "2026-05-11T18:04:17.949792Z",
      "apogee_km": 7507.156269216927,
      "perigee_km": 7486.1248813683005,
      "latitude_deg": 9.974586724471221e-06,
      "longitude_deg": 99.68597208886943,
      "height_km": 7505.7373319258895,
      "semi_major_axis_km": 13874.777575292614,
      "eccentricity": 0.0007579,
      "inclination_deg": 19.9488,
      "raan_deg": 240.3009,
      "arg_perigee_deg": 191.4923,
      "mean_anomaly_deg": 168.5118,
      "mean_motion_rev_day": 5.31206912
    },
    {
      "epoch": "2026-05-12T12:07:59.111328Z",
      "apogee_km": 7507.170370533972,
      "perigee_km": 7486.111232786613,
      "latitude_deg": -5.0648211674882285e-06,
      "longitude_deg": -172.44289853796153,
      "height_km": 7505.713433036087,
      "semi_major_axis_km": 13874.777801660293,
      "eccentricity": 0.0007589,
      "inclination_deg": 19.9485,
      "raan_deg": 239.8352,
      "arg_perigee_deg": 192.4877,
      "mean_anomaly_deg": 167.5154,
      "mean_motion_rev_day": 5.31206899
    },
    {
      "epoch": "2026-05-13T15:13:30.919296Z",
      "apogee_km": 7507.191844894011,
      "perigee_km": 7486.091081806947,
      "latitude_deg": 5.179812358268708e-06,
      "longitude_deg": 139.36426812683936,
      "height_km": 7505.672762566529,
      "semi_major_axis_km": 13874.778463350478,
      "eccentricity": 0.0007604,
      "inclination_deg": 19.9482,
      "raan_deg": 239.1366,
      "arg_perigee_deg": 193.9675,
      "mean_anomaly_deg": 166.0351,
      "mean_motion_rev_day": 5.31206861
    },
    {
      "epoch": "2026-05-13T19:44:26.218752Z",
      "apogee_km": 7507.196024753696,
      "perigee_km": 7486.086936773062,
      "latitude_deg": 3.750401388451724e-06,
      "longitude_deg": 71.33215077463741,
      "height_km": 7505.665682405333,
      "semi_major_axis_km": 13874.778480763378,
      "eccentricity": 0.0007607,
      "inclination_deg": 19.9481,
      "raan_deg": 239.0201,
      "arg_perigee_deg": 194.2189,
      "mean_anomaly_deg": 165.7837,
      "mean_motion_rev_day": 5.3120686
    },
    {
      "epoch": "2026-05-15T07:51:48.642048Z",
      "apogee_km": 7507.216298033264,
      "perigee_km": 7486.066141106482,
      "latitude_deg": 9.742684912521695e-06,
      "longitude_deg": -112.9235482482923,
      "height_km": 7505.594951402078,
      "semi_major_axis_km": 13874.778219569873,
      "eccentricity": 0.00076218,
      "inclination_deg": 19.9476,
      "raan_deg": 238.0886,
      "arg_perigee_deg": 196.1163,
      "mean_anomaly_deg": 163.8873,
      "mean_motion_rev_day": 5.31206875
    },
    {
      "epoch": "2026-05-16T10:57:20.545056Z",
      "apogee_km": 7507.243948327437,
      "perigee_km": 7486.040510708885,
      "latitude_deg": 1.9917302880876625e-05,
      "longitude_deg": -161.11496942594258,
      "height_km": 7505.541613719467,
      "semi_major_axis_km": 13874.77922951816,
      "eccentricity": 0.0007641,
      "inclination_deg": 19.9472,
      "raan_deg": 237.3901,
      "arg_perigee_deg": 197.6209,
      "mean_anomaly_deg": 162.3836,
      "mean_motion_rev_day": 5.31206817
    }
  ]
}